ORBCOMM FM06            
1 25118U 97084G   26169.72624684  .00000925  00000+0  28812-3 0  9997
2 25118  45.0145  45.3028 0001013 337.2562  65.7783 14.47565860494619
ORBCOMM FM04            
1 25159U 98007C   26168.95185236  .00000649  00000+0  26760-3 0  9990
2 25159 107.9626 170.9931 0041366 323.4493  36.3827 14.35742552476704
ORBCOMM FM19            
1 25415U 98046C   26169.46063780  .00000520  00000+0  21046-3 0  9994
2 25415  44.9924 237.5080 0004555 286.5139  88.2640 14.39497394456960
ORBCOMM FM20            
1 25416U 98046D   26169.47183096  .00000384  00000+0  17209-3 0  9993
2 25416  44.9934 245.3920 0002338 254.3977 105.6613 14.38067772456979
ORBCOMM FM27            
1 25481U 98053G   26169.71473014  .00000649  00000+0  25343-3 0  9994
2 25481  45.0041 328.0968 0001168 198.6150 161.4656 14.39143376450456
ORBCOMM FM32            
1 25982U 99065C   26169.68074498  .00000299  00000+0  14703-3 0  9992
2 25982  45.0135 166.1702 0004406  43.3180 316.8014 14.37131111387309
ORBCOMM FM109           
1 40086U 14040A   26169.46805565  .00000305  00000+0  10075-3 0  9993
2 40086  47.0030  85.4302 0001913 249.6241 110.4439 14.58846001634538
ORBCOMM FM110           
1 41182U 15081D   26168.92574824  .00000540  00000+0  15044-3 0  9990
2 41182  47.0033 357.9511 0002494  80.4208 279.6960 14.58881675557736
ORBCOMM FM118           
1 41183U 15081E   26169.57637279  .00002023  00000+0  46386-3 0  9998
2 41183  47.0047 355.2056 0002519  35.8519 324.2536 14.58880676557932
ORBCOMM FM112           
1 41184U 15081F   26169.30697124  .00000434  00000+0  12796-3 0  9997
2 41184  46.9989 264.9520 0003795 222.4136 137.6457 14.58905836559110
ORBCOMM FM113           
1 41185U 15081G   26169.69455345  .00000243  00000+0  87553-4 0  9999
2 41185  47.0007 263.4964 0002335 229.6651 130.4031 14.58859727559150
ORBCOMM FM108           
1 41187U 15081J   26169.04056137  .00000258  00000+0  90814-4 0  9996
2 41187  47.0030 178.1625 0002987 224.9174 135.1471 14.58870752560204
ORBCOMM FM117           
1 41188U 15081K   26169.41699686  .00000163  00000+0  70744-4 0  9995
2 41188  46.9993 175.0163 0003526 229.3841 130.6739 14.58865684560300
ORBCOMM FM116           
1 41189U 15081L   26169.53440260  .00000437  00000+0  12864-3 0  9993
2 41189  47.0018 264.2516 0000528  80.7304 279.3642 14.58885082559133
